{
  "norad_id": 66214,
  "name": "STARLINK-35714",
  "history": [
    {
      "epoch": "2026-03-28T13:27:39.512736",
      "apogee_km": 476.1130168090076,
      "perigee_km": 474.3119565639072,
      "latitude_deg": -52.93984360090893,
      "longitude_deg": 135.2439030399546,
      "semi_major_axis_km": 6853.349486686458,
      "eccentricity": 0.0001314,
      "inclination_deg": 53.1594,
      "raan_deg": 142.6226,
      "arg_perigee_deg": 79.8603,
      "mean_anomaly_deg": 280.2546,
      "mean_motion_rev_day": 15.30200865
    }
  ]
}