{"fetched_at":"2026-03-29T16:36:15Z","count":15609,"tles":[{"name":"STARLINK-35714","line1":"1 66214U 25244J   26087.56087399  .00031286  00000+0  10640-2 0  9998","line2":"2 66214  53.1594 142.6226 0001314  79.8603 280.2546 15.30200865 24545","category":"Starlink"}]}